sat08542
1 08542U 72058GR  20046.79197416  .00000080  00000-0  60814-4 0  9998
2 08542  97.9192 240.4078 0360325  96.4688 267.7622 13.83974297399379
